{
  "type": "FeatureCollection",
  "features": [
    {
      "type": "Feature",
      "properties": {
        "norad_id": 33939,
        "name": "COSMOS 2251 DEB",
        "group": "cosmos-2251-debris",
        "lat": -7.25812374994999,
        "lon": -75.98666213747845,
        "alt_km": 573.7438595338526,
        "timestamp": "2025-12-02T06:27:53.404554+00:00",
        "meta_object_name": "COSMOS 2251 DEB",
        "meta_object_id": "1993-036EU",
        "meta_epoch": "2025-12-01T15:12:38.848608",
        "meta_mean_motion": 14.98463057,
        "meta_eccentricity": 0.00034644,
        "meta_inclination": 74.006,
        "meta_ra_of_asc_node": 103.2103,
        "meta_arg_of_pericenter": 131.5579,
        "meta_mean_anomaly": 228.5905,
        "meta_ephemeris_type": 0,
        "meta_classification_type": "U",
        "meta_norad_cat_id": 33939,
        "meta_element_set_no": 999,
        "meta_rev_at_epoch": 88586,
        "meta_bstar": 0.003718842,
        "meta_mean_motion_dot": 0.00044706,
        "meta_mean_motion_ddot": 0,
        "tle_line1": "1 33939U 93036EU  25335.63378297  .00044706  00000+0  37188-2 0  9990",
        "tle_line2": "2 33939  74.0060 103.2103 0003464 131.5579 228.5905 14.98463057885867"
      },
      "geometry": {
        "type": "Point",
        "coordinates": [
          -75.98666213747845,
          -7.25812374994999
        ]
      }
    },
    {
      "type": "Feature",
      "properties": {
        "norad_id": 33940,
        "name": "COSMOS 2251 DEB",
        "group": "cosmos-2251-debris",
        "lat": 41.90919459327685,
        "lon": 178.31509747827124,
        "alt_km": 701.7923952726542,
        "timestamp": "2025-12-02T06:27:53.404564+00:00",
        "meta_object_name": "COSMOS 2251 DEB",
        "meta_object_id": "1993-036EV",
        "meta_epoch": "2025-12-01T14:03:37.479744",
        "meta_mean_motion": 14.58618522,
        "meta_eccentricity": 0.00117804,
        "meta_inclination": 74.0387,
        "meta_ra_of_asc_node": 164.7308,
        "meta_arg_of_pericenter": 243.7579,
        "meta_mean_anomaly": 172.5838,
        "meta_ephemeris_type": 0,
        "meta_classification_type": "U",
        "meta_norad_cat_id": 33940,
        "meta_element_set_no": 999,
        "meta_rev_at_epoch": 88431,
        "meta_bstar": 0.00097095256,
        "meta_mean_motion_dot": 4.499e-05,
        "meta_mean_motion_ddot": 0,
        "tle_line1": "1 33940U 93036EV  25335.58585046  .00004499  00000+0  97095-3 0  9997",
        "tle_line2": "2 33940  74.0387 164.7308 0011780 243.7579 172.5838 14.58618522884313"
      },
      "geometry": {
        "type": "Point",
        "coordinates": [
          178.31509747827124,
          41.90919459327685
        ]
      }
    },
    {
      "type": "Feature",
      "properties": {
        "norad_id": 33942,
        "name": "COSMOS 2251 DEB",
        "group": "cosmos-2251-debris",
        "lat": -54.7223068195742,
        "lon": -89.75531477494253,
        "alt_km": 768.9172637402071,
        "timestamp": "2025-12-02T06:27:53.404574+00:00",
        "meta_object_name": "COSMOS 2251 DEB",
        "meta_object_id": "1993-036EX",
        "meta_epoch": "2025-12-01T14:50:43.782720",
        "meta_mean_motion": 14.3796004,
        "meta_eccentricity": 0.00198197,
        "meta_inclination": 74.036,
        "meta_ra_of_asc_node": 295.3101,
        "meta_arg_of_pericenter": 21.1932,
        "meta_mean_anomaly": 153.3337,
        "meta_ephemeris_type": 0,
        "meta_classification_type": "U",
        "meta_norad_cat_id": 33942,
        "meta_element_set_no": 999,
        "meta_rev_at_epoch": 87974,
        "meta_bstar": 0.00027553702,
        "meta_mean_motion_dot": 8.08e-06,
        "meta_mean_motion_ddot": 0,
        "tle_line1": "1 33942U 93036EX  25335.61856230  .00000808  00000+0  27554-3 0  9992",
        "tle_line2": "2 33942  74.0360 295.3101 0019819  21.1932 153.3337 14.37960040879744"
      },
      "geometry": {
        "type": "Point",
        "coordinates": [
          -89.75531477494253,
          -54.7223068195742
        ]
      }
    },
    {
      "type": "Feature",
      "properties": {
        "norad_id": 33944,
        "name": "COSMOS 2251 DEB",
        "group": "cosmos-2251-debris",
        "lat": -21.33092394835292,
        "lon": 154.606798992529,
        "alt_km": 824.8738977746152,
        "timestamp": "2025-12-02T06:27:53.404584+00:00",
        "meta_object_name": "COSMOS 2251 DEB",
        "meta_object_id": "1993-036EZ",
        "meta_epoch": "2025-12-01T10:12:28.225152",
        "meta_mean_motion": 14.3730554,
        "meta_eccentricity": 0.01119072,
        "meta_inclination": 74.0401,
        "meta_ra_of_asc_node": 329.7426,
        "meta_arg_of_pericenter": 72.3344,
        "meta_mean_anomaly": 83.2552,
        "meta_ephemeris_type": 0,
        "meta_classification_type": "U",
        "meta_norad_cat_id": 33944,
        "meta_element_set_no": 999,
        "meta_rev_at_epoch": 87865,
        "meta_bstar": 0.00031805938,
        "meta_mean_motion_dot": 9.93e-06,
        "meta_mean_motion_ddot": 0,
        "tle_line1": "1 33944U 93036EZ  25335.42532668  .00000993  00000+0  31806-3 0  9999",
        "tle_line2": "2 33944  74.0401 329.7426 0111907  72.3344  83.2552 14.37305540878657"
      },
      "geometry": {
        "type": "Point",
        "coordinates": [
          154.606798992529,
          -21.33092394835292
        ]
      }
    },
    {
      "type": "Feature",
      "properties": {
        "norad_id": 33945,
        "name": "COSMOS 2251 DEB",
        "group": "cosmos-2251-debris",
        "lat": 72.59111638522701,
        "lon": 79.48391970005781,
        "alt_km": 757.6320480728446,
        "timestamp": "2025-12-02T06:27:53.404594+00:00",
        "meta_object_name": "COSMOS 2251 DEB",
        "meta_object_id": "1993-036FA",
        "meta_epoch": "2025-12-01T16:37:37.843104",
        "meta_mean_motion": 14.3458578,
        "meta_eccentricity": 0.0021522,
        "meta_inclination": 74.0293,
        "meta_ra_of_asc_node": 326.5101,
        "meta_arg_of_pericenter": 56.3064,
        "meta_mean_anomaly": 304.0136,
        "meta_ephemeris_type": 0,
        "meta_classification_type": "U",
        "meta_norad_cat_id": 33945,
        "meta_element_set_no": 999,
        "meta_rev_at_epoch": 87857,
        "meta_bstar": 0.00014664,
        "meta_mean_motion_dot": 3.89e-06,
        "meta_mean_motion_ddot": 0,
        "tle_line1": "1 33945U 93036FA  25335.69279911  .00000389  00000+0  14664-3 0  9990",
        "tle_line2": "2 33945  74.0293 326.5101 0021522  56.3064 304.0136 14.34585780878572"
      },
      "geometry": {
        "type": "Point",
        "coordinates": [
          79.48391970005781,
          72.59111638522701
        ]
      }
    },
    {
      "type": "Feature",
      "properties": {
        "norad_id": 33948,
        "name": "COSMOS 2251 DEB",
        "group": "cosmos-2251-debris",
        "lat": -73.7535609823468,
        "lon": -136.4313242189294,
        "alt_km": 791.5063212603773,
        "timestamp": "2025-12-02T06:27:53.404604+00:00",
        "meta_object_name": "COSMOS 2251 DEB",
        "meta_object_id": "1993-036FD",
        "meta_epoch": "2025-12-01T09:09:20.753280",
        "meta_mean_motion": 14.35607139,
        "meta_eccentricity": 0.00222581,
        "meta_inclination": 74.0352,
        "meta_ra_of_asc_node": 325.9748,
        "meta_arg_of_pericenter": 45.1701,
        "meta_mean_anomaly": 315.1255,
        "meta_ephemeris_type": 0,
        "meta_classification_type": "U",
        "meta_norad_cat_id": 33948,
        "meta_element_set_no": 999,
        "meta_rev_at_epoch": 87860,
        "meta_bstar": 0.0002268542,
        "meta_mean_motion_dot": 6.3e-06,
        "meta_mean_motion_ddot": 0,
        "tle_line1": "1 33948U 93036FD  25335.38149020  .00000630  00000+0  22685-3 0  9997",
        "tle_line2": "2 33948  74.0352 325.9748 0022258  45.1701 315.1255 14.35607139878605"
      },
      "geometry": {
        "type": "Point",
        "coordinates": [
          -136.4313242189294,
          -73.7535609823468
        ]
      }
    },
    {
      "type": "Feature",
      "properties": {
        "norad_id": 33971,
        "name": "COSMOS 2251 DEB",
        "group": "cosmos-2251-debris",
        "lat": -1.0715663325731137,
        "lon": 93.3902471970798,
        "alt_km": 774.7160724529758,
        "timestamp": "2025-12-02T06:27:53.404614+00:00",
        "meta_object_name": "COSMOS 2251 DEB",
        "meta_object_id": "1993-036FE",
        "meta_epoch": "2025-12-01T13:46:25.087008",
        "meta_mean_motion": 14.39688765,
        "meta_eccentricity": 0.00180141,
        "meta_inclination": 74.0248,
        "meta_ra_of_asc_node": 274.368,
        "meta_arg_of_pericenter": 17.0994,
        "meta_mean_anomaly": 160.779,
        "meta_ephemeris_type": 0,
        "meta_classification_type": "U",
        "meta_norad_cat_id": 33971,
        "meta_element_set_no": 999,
        "meta_rev_at_epoch": 87978,
        "meta_bstar": 0.00035479446,
        "meta_mean_motion_dot": 1.086e-05,
        "meta_mean_motion_ddot": 0,
        "tle_line1": "1 33971U 93036FE  25335.57390147  .00001086  00000+0  35479-3 0  9993",
        "tle_line2": "2 33971  74.0248 274.3680 0018014  17.0994 160.7790 14.39688765879780"
      },
      "geometry": {
        "type": "Point",
        "coordinates": [
          93.3902471970798,
          -1.0715663325731137
        ]
      }
    }
  ]
}